[{"OBJECT_NAME":"COSMOS 2251 DEB","OBJECT_ID":"1993-036BSM","EPOCH":"2026-03-02T02:41:12.736608","MEAN_MOTION":14.77688778,"ECCENTRICITY":0.0116214,"INCLINATION":73.9344,"RA_OF_ASC_NODE":200.7542,"ARG_OF_PERICENTER":57.5557,"MEAN_ANOMALY":303.6792,"EPHEMERIS_TYPE":0,"CLASSIFICATION_TYPE":"U","NORAD_CAT_ID":38197,"ELEMENT_SET_NO":999,"REV_AT_EPOCH":86926,"BSTAR":0.0036127591,"MEAN_MOTION_DOT":0.00029049,"MEAN_MOTION_DDOT":0},{"OBJECT_NAME":"COSMOS 2251 DEB","OBJECT_ID":"1993-036BSP","EPOCH":"2026-02-27T07:00:19.435968","MEAN_MOTION":13.64934306,"ECCENTRICITY":0.03689605,"INCLINATION":73.9553,"RA_OF_ASC_NODE":296.3904,"ARG_OF_PERICENTER":208.011,"MEAN_ANOMALY":150.0713,"EPHEMERIS_TYPE":0,"CLASSIFICATION_TYPE":"U","NORAD_CAT_ID":38199,"ELEMENT_SET_NO":999,"REV_AT_EPOCH":62066,"BSTAR":0.00036752221,"MEAN_MOTION_DOT":4.49e-6,"MEAN_MOTION_DDOT":0},{"OBJECT_NAME":"COSMOS 2251 DEB","OBJECT_ID":"1993-036BSY","EPOCH":"2026-03-04T00:54:49.680864","MEAN_MOTION":14.87737029,"ECCENTRICITY":0.00025765,"INCLINATION":74.0029,"RA_OF_ASC_NODE":276.9959,"ARG_OF_PERICENTER":336.9376,"MEAN_ANOMALY":174.2501,"EPHEMERIS_TYPE":0,"CLASSIFICATION_TYPE":"U","NORAD_CAT_ID":38208,"ELEMENT_SET_NO":999,"REV_AT_EPOCH":72366,"BSTAR":0.0028859258,"MEAN_MOTION_DOT":0.00026391,"MEAN_MOTION_DDOT":0},{"OBJECT_NAME":"COSMOS 2251 DEB","OBJECT_ID":"1993-036BTC","EPOCH":"2026-03-02T06:48:55.396800","MEAN_MOTION":14.78274571,"ECCENTRICITY":0.0092975,"INCLINATION":74.05,"RA_OF_ASC_NODE":280.5392,"ARG_OF_PERICENTER":325.394,"MEAN_ANOMALY":34.1205,"EPHEMERIS_TYPE":0,"CLASSIFICATION_TYPE":"U","NORAD_CAT_ID":38212,"ELEMENT_SET_NO":999,"REV_AT_EPOCH":82485,"BSTAR":0.0003574504,"MEAN_MOTION_DOT":2.754e-5,"MEAN_MOTION_DDOT":0},{"OBJECT_NAME":"COSMOS 2251 DEB","OBJECT_ID":"1993-036BTL","EPOCH":"2026-03-03T23:02:57.250176","MEAN_MOTION":14.99709159,"ECCENTRICITY":0.0003298,"INCLINATION":74.0103,"RA_OF_ASC_NODE":263.951,"ARG_OF_PERICENTER":226.6279,"MEAN_ANOMALY":133.4633,"EPHEMERIS_TYPE":0,"CLASSIFICATION_TYPE":"U","NORAD_CAT_ID":38220,"ELEMENT_SET_NO":999,"REV_AT_EPOCH":72585,"BSTAR":0.0043937,"MEAN_MOTION_DOT":0.00054639,"MEAN_MOTION_DDOT":0},{"OBJECT_NAME":"COSMOS 2251 DEB","OBJECT_ID":"1993-036BTP","EPOCH":"2026-03-04T06:18:13.079232","MEAN_MOTION":14.39302078,"ECCENTRICITY":0.00789047,"INCLINATION":74.0123,"RA_OF_ASC_NODE":33.6396,"ARG_OF_PERICENTER":125.873,"MEAN_ANOMALY":300.6999,"EPHEMERIS_TYPE":0,"CLASSIFICATION_TYPE":"U","NORAD_CAT_ID":38479,"ELEMENT_SET_NO":999,"REV_AT_EPOCH":65860,"BSTAR":0.0010705986,"MEAN_MOTION_DOT":3.423e-5,"MEAN_MOTION_DDOT":0},{"OBJECT_NAME":"COSMOS 2251 DEB","OBJECT_ID":"1993-036BTR","EPOCH":"2026-02-27T17:33:35.633088","MEAN_MOTION":13.95198321,"ECCENTRICITY":0.02301647,"INCLINATION":73.9303,"RA_OF_ASC_NODE":234.4494,"ARG_OF_PERICENTER":159.5246,"MEAN_ANOMALY":201.5301,"EPHEMERIS_TYPE":0,"CLASSIFICATION_TYPE":"U","NORAD_CAT_ID":38481,"ELEMENT_SET_NO":999,"REV_AT_EPOCH":60134,"BSTAR":0.0015661763,"MEAN_MOTION_DOT":2.616e-5,"MEAN_MOTION_DDOT":0},{"OBJECT_NAME":"COSMOS 2251 DEB","OBJECT_ID":"1993-036BTT","EPOCH":"2026-02-27T18:32:07.901952","MEAN_MOTION":14.29234836,"ECCENTRICITY":0.0113444,"INCLINATION":74.2588,"RA_OF_ASC_NODE":233.8114,"ARG_OF_PERICENTER":316.0658,"MEAN_ANOMALY":43.1513,"EPHEMERIS_TYPE":0,"CLASSIFICATION_TYPE":"U","NORAD_CAT_ID":38483,"ELEMENT_SET_NO":999,"REV_AT_EPOCH":64578,"BSTAR":0.00070861637,"MEAN_MOTION_DOT":1.905e-5,"MEAN_MOTION_DDOT":0},{"OBJECT_NAME":"COSMOS 2251 DEB","OBJECT_ID":"1993-036BTW","EPOCH":"2026-03-02T08:22:25.156128","MEAN_MOTION":14.76329034,"ECCENTRICITY":0.00308943,"INCLINATION":73.9396,"RA_OF_ASC_NODE":48.4189,"ARG_OF_PERICENTER":186.4811,"MEAN_ANOMALY":242.4245,"EPHEMERIS_TYPE":0,"CLASSIFICATION_TYPE":"U","NORAD_CAT_ID":38486,"ELEMENT_SET_NO":999,"REV_AT_EPOCH":76608,"BSTAR":0.0027827624,"MEAN_MOTION_DOT":0.00019484,"MEAN_MOTION_DDOT":0},{"OBJECT_NAME":"COSMOS 2251 DEB","OBJECT_ID":"1993-036BTX","EPOCH":"2026-02-28T17:34:44.973408","MEAN_MOTION":15.25753352,"ECCENTRICITY":0.00216382,"INCLINATION":73.9681,"RA_OF_ASC_NODE":229.3494,"ARG_OF_PERICENTER":13.6287,"MEAN_ANOMALY":346.5492,"EPHEMERIS_TYPE":0,"CLASSIFICATION_TYPE":"U","NORAD_CAT_ID":38487,"ELEMENT_SET_NO":999,"REV_AT_EPOCH":67986,"BSTAR":0.0024802785,"MEAN_MOTION_DOT":0.00064261,"MEAN_MOTION_DDOT":0},{"OBJECT_NAME":"COSMOS 2251 DEB","OBJECT_ID":"1993-036BTY","EPOCH":"2026-02-24T18:30:19.329120","MEAN_MOTION":14.71359668,"ECCENTRICITY":0.00577032,"INCLINATION":74.0411,"RA_OF_ASC_NODE":81.3577,"ARG_OF_PERICENTER":169.1149,"MEAN_ANOMALY":309.3953,"EPHEMERIS_TYPE":0,"CLASSIFICATION_TYPE":"U","NORAD_CAT_ID":39109,"ELEMENT_SET_NO":999,"REV_AT_EPOCH":66262,"BSTAR":0.00037457225,"MEAN_MOTION_DOT":2.345e-5,"MEAN_MOTION_DDOT":0},{"OBJECT_NAME":"COSMOS 2251 DEB","OBJECT_ID":"1993-036BUC","EPOCH":"2026-03-04T02:31:21.407232","MEAN_MOTION":14.94741578,"ECCENTRICITY":0.00403304,"INCLINATION":73.9997,"RA_OF_ASC_NODE":332.7214,"ARG_OF_PERICENTER":114.7885,"MEAN_ANOMALY":245.7503,"EPHEMERIS_TYPE":0,"CLASSIFICATION_TYPE":"U","NORAD_CAT_ID":39546,"ELEMENT_SET_NO":999,"REV_AT_EPOCH":65651,"BSTAR":0.001818978,"MEAN_MOTION_DOT":0.00020104,"MEAN_MOTION_DDOT":0},{"OBJECT_NAME":"COSMOS 2251 DEB","OBJECT_ID":"1993-036BUD","EPOCH":"2026-02-18T05:36:35.053920","MEAN_MOTION":15.11947293,"ECCENTRICITY":0.0003046,"INCLINATION":73.9998,"RA_OF_ASC_NODE":239.3113,"ARG_OF_PERICENTER":315.2619,"MEAN_ANOMALY":161.0018,"EPHEMERIS_TYPE":0,"CLASSIFICATION_TYPE":"U","NORAD_CAT_ID":39547,"ELEMENT_SET_NO":999,"REV_AT_EPOCH":65042,"BSTAR":0.0029907,"MEAN_MOTION_DOT":0.00051628,"MEAN_MOTION_DDOT":0},{"OBJECT_NAME":"COSMOS 2251 DEB","OBJECT_ID":"1993-036BUK","EPOCH":"2026-02-28T01:31:53.029344","MEAN_MOTION":14.00266341,"ECCENTRICITY":0.02067446,"INCLINATION":74.0287,"RA_OF_ASC_NODE":196.0355,"ARG_OF_PERICENTER":313.8074,"MEAN_ANOMALY":44.6119,"EPHEMERIS_TYPE":0,"CLASSIFICATION_TYPE":"U","NORAD_CAT_ID":39553,"ELEMENT_SET_NO":999,"REV_AT_EPOCH":76699,"BSTAR":0.0010339774,"MEAN_MOTION_DOT":1.814e-5,"MEAN_MOTION_DDOT":0},{"OBJECT_NAME":"COSMOS 2251 DEB","OBJECT_ID":"1993-036BUL","EPOCH":"2026-03-04T02:01:21.946656","MEAN_MOTION":15.21339433,"ECCENTRICITY":0.00126141,"INCLINATION":74.0078,"RA_OF_ASC_NODE":95.0529,"ARG_OF_PERICENTER":271.4952,"MEAN_ANOMALY":120.4059,"EPHEMERIS_TYPE":0,"CLASSIFICATION_TYPE":"U","NORAD_CAT_ID":39554,"ELEMENT_SET_NO":999,"REV_AT_EPOCH":65617,"BSTAR":0.0048513258,"MEAN_MOTION_DOT":0.00110533,"MEAN_MOTION_DDOT":0},{"OBJECT_NAME":"COSMOS 2251 DEB","OBJECT_ID":"1993-036BUQ","EPOCH":"2026-02-07T03:28:40.702656","MEAN_MOTION":14.58844351,"ECCENTRICITY":0.00677691,"INCLINATION":74.0403,"RA_OF_ASC_NODE":193.9274,"ARG_OF_PERICENTER":300.7751,"MEAN_ANOMALY":58.6753,"EPHEMERIS_TYPE":0,"CLASSIFICATION_TYPE":"U","NORAD_CAT_ID":39585,"ELEMENT_SET_NO":999,"REV_AT_EPOCH":63343,"BSTAR":0.00031897443,"MEAN_MOTION_DOT":1.509e-5,"MEAN_MOTION_DDOT":0}]
